[{"OBJECT_NAME":"YAOGAN-14","OBJECT_ID":"2012-021A","EPOCH":"2026-03-09T23:13:16.463424","MEAN_MOTION":15.26486019,"ECCENTRICITY":0.00056417,"INCLINATION":97.2863,"RA_OF_ASC_NODE":208.4378,"ARG_OF_PERICENTER":161.6562,"MEAN_ANOMALY":198.4882,"EPHEMERIS_TYPE":0,"CLASSIFICATION_TYPE":"U","NORAD_CAT_ID":38257,"ELEMENT_SET_NO":999,"REV_AT_EPOCH":77067,"BSTAR":0.00037795498,"MEAN_MOTION_DOT":9.798e-5,"MEAN_MOTION_DDOT":0},{"OBJECT_NAME":"SITRO-AIS 7 (FARTUSHNIY)","OBJECT_ID":"2023-091AE","EPOCH":"2026-03-09T23:03:57.724992","MEAN_MOTION":15.24163112,"ECCENTRICITY":0.00140938,"INCLINATION":97.518,"RA_OF_ASC_NODE":131.502,"ARG_OF_PERICENTER":95.9262,"MEAN_ANOMALY":264.3582,"EPHEMERIS_TYPE":0,"CLASSIFICATION_TYPE":"U","NORAD_CAT_ID":57194,"ELEMENT_SET_NO":999,"REV_AT_EPOCH":14915,"BSTAR":0.00031715122,"MEAN_MOTION_DOT":7.668e-5,"MEAN_MOTION_DDOT":0}]
